{
  "type": "FeatureCollection",
  "features": [
    {
      "type": "Feature",
      "properties": {
        "norad_id": 48859,
        "name": "GPS BIII-5  (PRN 11)",
        "group": "gps-ops",
        "lat": 23.016173116954963,
        "lon": 142.6390680429423,
        "alt_km": 20171.232398819757,
        "timestamp": "2025-12-16T17:51:11.190410+00:00",
        "meta_object_name": "GPS BIII-5  (PRN 11)",
        "meta_object_id": "2021-054A",
        "meta_epoch": "2025-12-08T04:14:32.423424",
        "meta_mean_motion": 2.00553627,
        "meta_eccentricity": 0.0024678,
        "meta_inclination": 55.2581,
        "meta_ra_of_asc_node": 340.1367,
        "meta_arg_of_pericenter": 233.3994,
        "meta_mean_anomaly": 212.8593,
        "meta_ephemeris_type": 0,
        "meta_classification_type": "U",
        "meta_norad_cat_id": 48859,
        "meta_element_set_no": 999,
        "meta_rev_at_epoch": 3292,
        "meta_bstar": 0,
        "meta_mean_motion_dot": -8.6e-07,
        "meta_mean_motion_ddot": 0,
        "tle_line1": "1 48859U 21054A   25342.17676416 -.00000086  00000+0  00000+0 0  9993",
        "tle_line2": "2 48859  55.2581 340.1367 0024678 233.3994 212.8593  2.00553627 32922"
      },
      "geometry": {
        "type": "Point",
        "coordinates": [
          142.6390680429423,
          23.016173116954963
        ]
      }
    },
    {
      "type": "Feature",
      "properties": {
        "norad_id": 55268,
        "name": "GPS BIII-6  (PRN 28)",
        "group": "gps-ops",
        "lat": -11.691309990806845,
        "lon": -16.013548346665395,
        "alt_km": 20194.11246230277,
        "timestamp": "2025-12-16T17:51:11.190421+00:00",
        "meta_object_name": "GPS BIII-6  (PRN 28)",
        "meta_object_id": "2023-009A",
        "meta_epoch": "2025-12-13T12:37:03.021024",
        "meta_mean_motion": 2.00555696,
        "meta_eccentricity": 0.00037118,
        "meta_inclination": 55.1051,
        "meta_ra_of_asc_node": 155.8142,
        "meta_arg_of_pericenter": 357.4368,
        "meta_mean_anomaly": 33.2544,
        "meta_ephemeris_type": 0,
        "meta_classification_type": "U",
        "meta_norad_cat_id": 55268,
        "meta_element_set_no": 999,
        "meta_rev_at_epoch": 2152,
        "meta_bstar": 0,
        "meta_mean_motion_dot": 1e-06,
        "meta_mean_motion_ddot": 0,
        "tle_line1": "1 55268U 23009A   25347.52572941  .00000100  00000+0  00000+0 0  9995",
        "tle_line2": "2 55268  55.1051 155.8142 0003711 357.4368  33.2544  2.00555696 21528"
      },
      "geometry": {
        "type": "Point",
        "coordinates": [
          -16.013548346665395,
          -11.691309990806845
        ]
      }
    },
    {
      "type": "Feature",
      "properties": {
        "norad_id": 62339,
        "name": "GPS BIII-7  (PRN 01)",
        "group": "gps-ops",
        "lat": -54.86854942640936,
        "lon": -105.42452761576278,
        "alt_km": 20178.29350872236,
        "timestamp": "2025-12-16T17:51:11.190433+00:00",
        "meta_object_name": "GPS BIII-7  (PRN 01)",
        "meta_object_id": "2024-242A",
        "meta_epoch": "2025-12-15T08:51:56.700864",
        "meta_mean_motion": 2.0056809,
        "meta_eccentricity": 0.00123957,
        "meta_inclination": 54.9228,
        "meta_ra_of_asc_node": 341.6333,
        "meta_arg_of_pericenter": 345.2723,
        "meta_mean_anomaly": 14.1201,
        "meta_ephemeris_type": 0,
        "meta_classification_type": "U",
        "meta_norad_cat_id": 62339,
        "meta_element_set_no": 999,
        "meta_rev_at_epoch": 756,
        "meta_bstar": 0,
        "meta_mean_motion_dot": -9.1e-07,
        "meta_mean_motion_ddot": 0,
        "tle_line1": "1 62339U 24242A   25349.36940626 -.00000091  00000+0  00000+0 0  9995",
        "tle_line2": "2 62339  54.9228 341.6333 0012395 345.2723  14.1201  2.00568090  7561"
      },
      "geometry": {
        "type": "Point",
        "coordinates": [
          -105.42452761576278,
          -54.86854942640936
        ]
      }
    },
    {
      "type": "Feature",
      "properties": {
        "norad_id": 64202,
        "name": "GPS BIII-8  (PRN 21)",
        "group": "gps-ops",
        "lat": 53.57783009217994,
        "lon": 147.60136114102355,
        "alt_km": 20189.68236145795,
        "timestamp": "2025-12-16T17:51:11.190445+00:00",
        "meta_object_name": "GPS BIII-8  (PRN 21)",
        "meta_object_id": "2025-116A",
        "meta_epoch": "2025-12-14T02:46:13.653120",
        "meta_mean_motion": 2.00558299,
        "meta_eccentricity": 0.00056153,
        "meta_inclination": 55.1067,
        "meta_ra_of_asc_node": 38.5851,
        "meta_arg_of_pericenter": 308.147,
        "meta_mean_anomaly": 55.2369,
        "meta_ephemeris_type": 0,
        "meta_classification_type": "U",
        "meta_norad_cat_id": 64202,
        "meta_element_set_no": 999,
        "meta_rev_at_epoch": 416,
        "meta_bstar": 0,
        "meta_mean_motion_dot": -9.6e-07,
        "meta_mean_motion_ddot": 0,
        "tle_line1": "1 64202U 25116A   25348.11543580 -.00000096  00000+0  00000+0 0  9992",
        "tle_line2": "2 64202  55.1067  38.5851 0005615 308.1470  55.2369  2.00558299  4161"
      },
      "geometry": {
        "type": "Point",
        "coordinates": [
          147.60136114102355,
          53.57783009217994
        ]
      }
    }
  ]
}